{
  "norad_id": 22787,
  "name": "UFO 2 (USA 95)",
  "history": [
    {
      "epoch": "2026-03-27T23:28:38.745408",
      "apogee_km": 35823.51865762187,
      "perigee_km": 35747.95340765024,
      "latitude_deg": -1.2916251909055747,
      "longitude_deg": 56.6097171199508,
      "semi_major_axis_km": 42163.87303263606,
      "eccentricity": 0.00089609,
      "inclination_deg": 11.867,
      "raan_deg": 3.9952,
      "arg_perigee_deg": 345.433,
      "mean_anomaly_deg": 216.7946,
      "mean_motion_rev_day": 1.00274849
    }
  ]
}